H1 CPF  1  MCC 2022  5 26 12  6461 larets
H2  0304206 5557    27944 2022 05 25 23 45 00 2022 05 30 23 57 00   180 1 1  0 0 0
H9
10 0 59726  4860.000000 0     -1702365.315     -1327992.532      6718265.739
10 0 59726  5040.000000 0     -2969493.834     -1466391.965      6233959.927
10 0 59726  5220.000000 0     -4131363.932     -1519684.722      5521741.096
10 0 59726  5400.000000 0     -5143588.681     -1489282.095      4607649.904
10 0 59726  5580.000000 0     -5967291.063     -1380722.400      3525091.880
10 0 59726  5760.000000 0     -6570629.459     -1203310.325      2313636.874
10 0 59726  5940.000000 0     -6930071.270      -969582.088      1017584.697
10 0 59726  6120.000000 0     -7031352.550      -694620.069      -315668.676
10 0 59726  6300.000000 0     -6870061.010      -395248.875     -1637395.053
10 0 59726  6480.000000 0     -6451815.236       -89155.342     -2899347.428
10 0 59726  6660.000000 0     -5792038.219       206019.906     -4055544.150
10 0 59726  6840.000000 0     -4915334.756       473576.014     -5063952.773
10 0 59726  7020.000000 0     -3854510.642       698584.471     -5887996.598
10 0 59726  7200.000000 0     -2649293.231       868619.930     -6497835.247
10 0 59726  7380.000000 0     -1344817.210       974356.983     -6871385.625
10 0 59726  7560.000000 0        10062.013      1010014.711     -6995067.863
10 0 59726  7740.000000 0      1364567.066       973632.525     -6864265.268
10 0 59726  7920.000000 0      2667861.988       867168.676     -6483504.858
10 0 59726  8100.000000 0      3870935.802       696417.350     -5866337.911
10 0 59726  8280.000000 0      4928440.076       470744.121     -5034916.798
10 0 59726  8460.000000 0      5800425.792       202646.418     -4019274.999
10 0 59726  8640.000000 0      6453916.680       -92847.084     -2856307.477
10 0 59726  8820.000000 0      6864243.522      -398917.369     -1588471.527
10 0 59726  9000.000000 0      7016071.063      -697803.835      -262239.623
10 0 59726  9180.000000 0      6904048.685      -971717.885      1073638.633
10 0 59726  9360.000000 0      6533043.804     -1203775.296      2369989.391
10 0 59726  9540.000000 0      5917936.417     -1378895.401      3579098.549
10 0 59726  9720.000000 0      5082980.810     -1484615.372      4656530.857
10 0 59726  9900.000000 0      4060779.626     -1511778.490      5562797.837
10 0 59726 10080.000000 0      2890930.713     -1455057.726      6264808.205
10 0 59726 10260.000000 0      1618419.757     -1313295.313      6737049.495
10 0 59726 10440.000000 0       291838.030     -1089647.004      6962469.616
10 0 59726 10620.000000 0     -1038502.274      -791524.124      6933042.031
10 0 59726 10800.000000 0     -2322479.496      -430338.821      6650009.751
10 0 59726 10980.000000 0     -3512040.292       -21062.321      6123817.635
10 0 59726 11160.000000 0     -4562992.521       418389.197      5373738.182
10 0 59726 11340.000000 0     -5436658.955       867919.254      4427191.197
10 0 59726 11520.000000 0     -6101328.718      1306139.074      3318768.391
10 0 59726 11700.000000 0     -6533445.501      1711344.011      2088989.141
10 0 59726 11880.000000 0     -6718483.569      2062534.407       782825.409
10 0 59726 12060.000000 0     -6651467.141      2340432.956      -551958.469
10 0 59726 12240.000000 0     -6337097.153      2528444.700     -1866584.029
10 0 59726 12420.000000 0     -5789481.347      2613510.529     -3113073.924
10 0 59726 12600.000000 0     -5031480.596      2586811.702     -4246028.407
10 0 59726 12780.000000 0     -4093708.641      2444286.258     -5224279.929
10 0 59726 12960.000000 0     -3013248.346      2186937.960     -6012359.790
10 0 59726 13140.000000 0     -1832155.196      1820929.769     -6581733.383
10 0 59726 13320.000000 0      -595810.453      1357458.948     -6911777.167
10 0 59726 13500.000000 0       648807.229       812420.347     -6990472.638
10 0 59726 13680.000000 0      1854871.788       205873.210     -6814820.096
10 0 59726 13860.000000 0      2977442.107      -438678.218     -6390964.277
10 0 59726 14040.000000 0      3975120.288     -1095171.175     -5734018.657
10 0 59726 14220.000000 0      4811585.230     -1736011.660     -4867590.880
10 0 59726 14400.000000 0      5456955.535     -2333215.308     -3823010.844
10 0 59726 14580.000000 0      5888924.899     -2859619.178     -2638260.372
10 0 59726 14760.000000 0      6093613.343     -3290109.946     -1356625.275
10 0 59726 14940.000000 0      6066082.277     -3602808.529       -25109.727
10 0 59726 15120.000000 0      5810478.706     -3780148.916      1307326.137
10 0 59726 15300.000000 0      5339791.236     -3809790.719      2591632.204
10 0 59726 15480.000000 0      4675219.355     -3685306.887      3780548.069
10 0 59726 15660.000000 0      3845198.001     -3406609.988      4830398.124
10 0 59726 15840.000000 0      2884135.026     -2980101.115      5702727.773
10 0 59726 16020.000000 0      1830927.030     -2418533.458      6365710.382
10 0 59726 16200.000000 0       727336.683     -1740604.635      6795276.321
10 0 59726 16380.000000 0      -383694.095      -970302.811      6975937.543
10 0 59726 16560.000000 0     -1459724.450      -136033.692      6901295.783
10 0 59726 16740.000000 0     -2460429.750       730438.156      6574234.071
10 0 59726 16920.000000 0     -3349103.367      1595198.981      6006794.453
10 0 59726 17100.000000 0     -4094000.196      2423507.068      5219746.970
10 0 59726 17280.000000 0     -4669481.989      3181184.489      4241857.642
10 0 59726 17460.000000 0     -5056921.458      3836027.944      3108863.975
10 0 59726 17640.000000 0     -5245325.659      4359179.474      1862187.129
10 0 59726 17820.000000 0     -5231651.764      4726399.445       547419.628
10 0 59726 18000.000000 0     -5020794.732      4919173.212      -787361.510
10 0 59726 18180.000000 0     -4625247.431      4925594.643     -2093384.287
10 0 59726 18360.000000 0     -4064444.110      4740981.066     -3323000.535
10 0 59726 18540.000000 0     -3363824.517      4368182.140     -4431445.829
10 0 59726 18720.000000 0     -2553673.552      3817575.757     -5378461.234
10 0 59726 18900.000000 0     -1667805.979      3106764.593     -6129718.704
10 0 59726 19080.000000 0      -742156.512      2259991.295     -6658016.700
10 0 59726 19260.000000 0       186667.432      1307295.002     -6944208.902
10 0 59726 19440.000000 0      1082809.273       283449.873     -6977851.372
10 0 59726 19620.000000 0      1912522.180      -773282.148     -6757566.151
10 0 59726 19800.000000 0      2645421.510     -1822551.865     -6291108.028
10 0 59726 19980.000000 0      3255592.506     -2823433.042     -5595136.812
10 0 59726 20160.000000 0      3722525.196     -3736006.156     -4694695.327
10 0 59726 20340.000000 0      4031839.164     -4522965.509     -3622377.870
10 0 59726 20520.000000 0      4175762.377     -5151175.222     -2417208.658
10 0 59726 20700.000000 0      4153346.438     -5593115.060     -1123253.100
10 0 59726 20880.000000 0      3970390.915     -5828136.170       212005.219
10 0 59726 21060.000000 0      3639072.602     -5843450.333      1539454.127
10 0 59726 21240.000000 0      3177294.772     -5634793.508      2810228.726
10 0 59726 21420.000000 0      2607786.510     -5206719.746      3977581.615
10 0 59726 21600.000000 0      1957006.391     -4572516.270      4998653.806
10 0 59726 21780.000000 0      1253914.191     -3753747.837      5836073.033
10 0 59726 21960.000000 0       528673.169     -2779457.786      6459315.631
10 0 59726 22140.000000 0      -188653.353     -1685071.846      6845780.543
10 0 59726 22320.000000 0      -869346.589      -511065.613      6981555.894
10 0 59726 22500.000000 0     -1487173.769       698555.977      6861876.009
10 0 59726 22680.000000 0     -2019390.329      1897915.785      6491258.535
10 0 59726 22860.000000 0     -2447570.315      3041000.185      5883325.357
10 0 59726 23040.000000 0     -2758240.422      4083420.170      5060316.090
10 0 59726 23220.000000 0     -2943300.865      4984141.960      4052304.251
10 0 59726 23400.000000 0     -3000218.016      5707125.354      2896126.814
10 0 59726 23580.000000 0     -2931977.502      6222797.390      1634052.081
10 0 59726 23760.000000 0     -2746799.869      6509291.158       312232.206
10 0 59726 23940.000000 0     -2457630.793      6553392.067     -1021003.199
10 0 59726 24120.000000 0     -2081431.350      6351139.594     -2316949.880
10 0 59726 24300.000000 0     -1638298.494      5908038.428     -3528347.297
10 0 59726 24480.000000 0     -1150467.918      5238878.409     -4611111.982
10 0 59726 24660.000000 0      -641258.520      4367190.893     -5525927.396
10 0 59726 24840.000000 0      -134006.324      3324372.660     -6239635.912
10 0 59726 25020.000000 0       348966.080      2148517.330     -6726392.288
10 0 59726 25200.000000 0       787297.915       883008.045     -6968543.276
10 0 59726 25380.000000 0      1163422.014      -425070.270     -6957226.621
10 0 59726 25560.000000 0      1463253.417     -1726653.991     -6692679.693
10 0 59726 25740.000000 0      1676712.712     -2972503.990     -6184252.511
10 0 59726 25920.000000 0      1798072.164     -4115041.909     -5450131.911
10 0 59726 26100.000000 0      1826110.525     -5110176.110     -4516763.566
10 0 59726 26280.000000 0      1764068.596     -5919039.827     -3417968.369
10 0 59726 26460.000000 0      1619402.388     -6509578.106     -2193773.322
10 0 59726 26640.000000 0      1403339.191     -6857904.819      -888974.537
10 0 59726 26820.000000 0      1130255.199     -6949351.698       448519.697
10 0 59726 27000.000000 0       816902.460     -6779143.360      1769499.289
10 0 59726 27180.000000 0       481525.270     -6352654.696      3025333.565
10 0 59726 27360.000000 0       142913.579     -5685226.752      4169834.893
10 0 59726 27540.000000 0      -180556.891     -4801556.024      5161004.674
10 0 59726 27720.000000 0      -471841.859     -3734703.094      5962591.517
99
